NORAD_CAT_ID,OBJECT_NAME,OBJECT_TYPE,EPOCH,MEAN_MOTION,ECCENTRICITY,INCLINATION,RA_OF_ASC_NODE,ARG_OF_PERICENTER,MEAN_ANOMALY,BSTAR,MEAN_MOTION_DOT,MEAN_MOTION_DDOT,TLE_LINE0,TLE_LINE1,TLE_LINE2,SEMIMAJOR_AXIS,PERIOD,APOGEE,PERIGEE,DECAYED
52377.0,STARLINK-3805,PAYLOAD,2022-06-04 12:43:28,15.73212923,0.0002045,53.2152,259.8328,27.899,332.2139,2.9179e-05,3.478e-05,0.0,0 STARLINK-3805,1 52377U 22045AY  22155.53019127  .00003478  00000-0  29179-4 0  9994,2 52377  53.2152 259.8328 0002045  27.8990 332.2139 15.73212923  8159,6727.858,91.532,351.099,348.347,0.0
52377.0,STARLINK-3805,PAYLOAD,2022-06-05 22:00:00,15.73231772,0.0002352,53.214,252.9722,18.3281,278.8165,-0.00014282,-0.00020646,0.0,0 STARLINK-3805,1 52377U 22045AY  22156.91667824 -.00020646  00000-0 -14282-3 0  9996,2 52377  53.2140 252.9722 0002352  18.3281 278.8165 15.73231772  8367,6727.805,91.531,351.25199999999984,348.087,0.0
52377.0,STARLINK-3805,PAYLOAD,2022-06-06 06:00:00,15.72679692,0.0002348,53.2165,251.3192,33.7594,352.3911,0.0054175,0.00820358,0.0,0 STARLINK-3805,1 52377U 22045AY  22157.25001157  .00820358  00000-0  54175-2 0  9995,2 52377  53.2165 251.3192 0002348  33.7594 352.3911 15.72679692  8421,6729.379,91.563,352.824,349.664,0.0
52377.0,STARLINK-3805,PAYLOAD,2022-06-06 14:00:01,15.7317124,0.0002586,53.2137,249.6741,23.7328,91.3104,0.00017935,0.00024595,0.0,0 STARLINK-3805,1 52377U 22045AY  22157.58334491  .00024595  00000-0  17935-3 0  9994,2 52377  53.2137 249.6741 0002586  23.7328  91.3104 15.73171240  1309,6727.977,91.535,351.582,348.102,0.0
52377.0,STARLINK-3805,PAYLOAD,2022-06-06 22:00:00,15.73222329,0.0002536,53.2134,248.0235,24.4418,179.5142,-8.5424e-05,-0.00012606,0.0,0 STARLINK-3805,1 52377U 22045AY  22157.91667824 -.00012606  00000-0 -85424-4 0  9991,2 52377  53.2134 248.0235 0002536  24.4418 179.5142 15.73222329  8527,6727.831999999999,91.532,351.403,347.99,0.0
52377.0,STARLINK-3805,PAYLOAD,2022-06-07 14:00:01,15.73202887,0.0002807,53.2139,244.7252,28.3371,353.5278,-0.00021126,-0.00030175,0.0,0 STARLINK-3805,1 52377U 22045AY  22158.58334491 -.00030175  00000-0 -21126-3 0  9995,2 52377  53.2139 244.7252 0002807  28.3371 353.5278 15.73202887  1306,6727.887,91.533,351.64,347.86300000000006,0.0
52377.0,STARLINK-3805,PAYLOAD,2022-06-07 22:00:00,15.73194709,0.0002676,53.2138,243.0744,24.8398,85.9689,-4.6157e-05,-7.094e-05,0.0,0 STARLINK-3805,1 52377U 22045AY  22158.91667824 -.00007094  00000-0 -46157-4 0  9997,2 52377  53.2138 243.0744 0002676  24.8398  85.9689 15.73194709  1302,6727.91,91.533,351.576,347.975,0.0
52377.0,STARLINK-3805,PAYLOAD,2022-06-08 06:00:02,15.73196944,0.0002576,53.214,241.4241,27.8205,171.9573,0.00035885,0.00050041,0.0,0 STARLINK-3805,1 52377U 22045AY  22159.25002315  .00050041  00000-0  35885-3 0  9996,2 52377  53.2140 241.4241 0002576  27.8205 171.9573 15.73196944  8733,6727.904,91.533,351.50199999999984,348.036,0.0
52377.0,STARLINK-3805,PAYLOAD,2022-06-08 14:00:01,15.73242374,0.0002804,53.2136,239.7767,23.2341,265.4152,-0.00037567,-0.00053121,0.0,0 STARLINK-3805,1 52377U 22045AY  22159.58334491 -.00053121  00000-0 -37567-3 0  9998,2 52377  53.2136 239.7767 0002804  23.2341 265.4152 15.73242374  1303,6727.774,91.531,351.526,347.75300000000016,0.0
52377.0,STARLINK-3805,PAYLOAD,2022-06-08 22:00:01,15.73188941,0.0002547,53.2134,238.1255,17.6234,0.0459,-0.00063625,-0.00088952,0.0,0 STARLINK-3805,1 52377U 22045AY  22159.91668981 -.00088952  00000-0 -63625-3 0  9993,2 52377  53.2134 238.1255 0002547  17.6234   0.0459 15.73188941  8846,6727.927,91.534,351.505,348.07800000000015,0.0
52377.0,STARLINK-3805,PAYLOAD,2022-06-09 06:00:00,15.73141848,0.0002483,53.2138,236.4754,19.1385,87.3354,0.00024203,0.000334,0.0,0 STARLINK-3805,1 52377U 22045AY  22160.25001157  .00033400  00000-0  24203-3 0  9993,2 52377  53.2138 236.4754 0002483  19.1385  87.3354 15.73141848  8890,6728.061,91.537,351.597,348.255,0.0
52377.0,STARLINK-3805,PAYLOAD,2022-06-09 14:00:01,15.73142074,0.0002824,53.214,234.828,17.1663,178.1879,0.0004083,0.00056936,0.0,0 STARLINK-3805,1 52377U 22045AY  22160.58334491  .00056936  00000-0  40830-3 0  9992,2 52377  53.2140 234.8280 0002824  17.1663 178.1879 15.73142074  1307,6728.06,91.537,351.825,348.025,0.0
52377.0,STARLINK-3805,PAYLOAD,2022-06-09 22:00:00,15.7320229,0.0002725,53.2139,233.177,17.6154,266.6367,7.4627e-05,9.866e-05,0.0,0 STARLINK-3805,1 52377U 22045AY  22160.91667824  .00009866  00000-0  74627-4 0  9990,2 52377  53.2139 233.1770 0002725  17.6154 266.6367 15.73202290  1303,6727.889,91.533,351.587,347.92,0.0
52377.0,STARLINK-3805,PAYLOAD,2022-06-10 08:00:01,15.73235638,0.0002745,53.2138,231.115,18.8534,106.5553,-3.4143e-05,-5.42e-05,0.0,0 STARLINK-3805,1 52377U 22045AY  22161.33334491 -.00005420  00000-0 -34143-4 0  9991,2 52377  53.2138 231.1150 0002745  18.8534 106.5553 15.73235638  9061,6727.794,91.531,351.505,347.81199999999984,0.0
52377.0,STARLINK-3805,PAYLOAD,2022-06-10 14:00:01,15.73240582,0.000293,53.2136,229.8792,16.4414,85.7022,-0.00029482,-0.00041875,0.0,0 STARLINK-3805,1 52377U 22045AY  22161.58334491 -.00041875  00000-0 -29482-3 0  9991,2 52377  53.2136 229.8792 0002930  16.4414  85.7022 15.73240582  1304,6727.779,91.531,351.616,347.673,0.0
52377.0,STARLINK-3805,PAYLOAD,2022-06-10 22:00:00,15.73211,0.0002748,53.2133,228.2278,15.0649,176.0586,2.012e-05,2.204e-05,0.0,0 STARLINK-3805,1 52377U 22045AY  22161.91667824  .00002204  00000-0  20120-4 0  9999,2 52377  53.2133 228.2278 0002748  15.0649 176.0586 15.73211000  1307,6727.864000000001,91.533,351.57800000000015,347.88,0.0
52377.0,STARLINK-3805,PAYLOAD,2022-06-11 14:00:01,15.73190529,0.0003053,53.2137,224.9304,18.2031,350.8042,4.2484e-05,5.342e-05,0.0,0 STARLINK-3805,1 52377U 22045AY  22162.58334491  .00005342  00000-0  42484-4 0  9997,2 52377  53.2137 224.9304 0003053  18.2031 350.8042 15.73190529  9268,6727.922,91.534,351.841,347.733,0.0
52377.0,STARLINK-3805,PAYLOAD,2022-06-11 22:00:00,15.7317191,0.0002856,53.2136,223.2791,15.8585,82.0864,0.00011725,0.00015847,0.0,0 STARLINK-3805,1 52377U 22045AY  22162.91667824  .00015847  00000-0  11725-3 0  9997,2 52377  53.2136 223.2791 0002856  15.8585  82.0864 15.73171910  1302,6727.975,91.535,351.76199999999994,347.9190000000001,0.0
52377.0,STARLINK-3805,PAYLOAD,2022-06-12 14:00:01,15.72877588,0.0002958,53.2169,219.9796,18.1061,257.6592,0.0035891999999999,0.00528803,0.0,0 STARLINK-3805,1 52377U 22045AY  22163.58334491  .00528803  00000-0  35892-2 0  9993,2 52377  53.2169 219.9796 0002958  18.1061 257.6592 15.72877588  9414,6728.815,91.552,352.67,348.689,0.0
52377.0,STARLINK-3805,PAYLOAD,2022-06-12 22:00:00,15.73195096,0.000287,53.2137,218.3304,15.4508,349.3163,0.00020247,0.00027886,0.0,0 STARLINK-3805,1 52377U 22045AY  22163.91667824  .00027886  00000-0  20247-3 0  9993,2 52377  53.2137 218.3304 0002870  15.4508 349.3163 15.73195096  1307,6727.909000000002,91.533,351.705,347.843,0.0
52377.0,STARLINK-3805,PAYLOAD,2022-06-13 06:00:02,15.73270656,0.0002892,53.2144,216.681,14.3545,79.4049,-0.00065551,-0.00091921,0.0,0 STARLINK-3805,1 52377U 22045AY  22164.25002315 -.00091921  00000-0 -65551-3 0  9999,2 52377  53.2144 216.6810 0002892  14.3545  79.4049 15.73270656  9523,6727.694,91.529,351.504,347.61300000000006,0.0
52377.0,STARLINK-3805,PAYLOAD,2022-06-13 14:00:01,15.73198307,0.0003165,53.2145,215.0333,12.2987,170.3905,0.00022437,0.00030987,0.0,0 STARLINK-3805,1 52377U 22045AY  22164.58334491  .00030987  00000-0  22437-3 0  9997,2 52377  53.2145 215.0333 0003165  12.2987 170.3905 15.73198307  9577,6727.9,91.533,351.894,347.636,0.0
52377.0,STARLINK-3805,PAYLOAD,2022-06-13 22:00:00,15.73197861,0.0003031,53.2144,213.3816,14.7199,256.9501,0.00027301,0.00037869,0.0,0 STARLINK-3805,1 52377U 22045AY  22164.91667824  .00037869  00000-0  27301-3 0  9994,2 52377  53.2144 213.3816 0003031  14.7199 256.9501 15.73197861  1307,6727.901,91.533,351.805,347.727,0.0
52377.0,STARLINK-3805,PAYLOAD,2022-06-14 06:00:00,15.7322336,0.0003023,53.2142,211.7325,14.7638,345.8366,-0.00031255,-0.00044312,0.0,0 STARLINK-3805,1 52377U 22045AY  22165.25001157 -.00044312  00000-0 -31255-3 0  9999,2 52377  53.2142 211.7325 0003023  14.7638 345.8366 15.73223360  9670,6727.829000000002,91.532,351.727,347.66,0.0
52377.0,STARLINK-3805,PAYLOAD,2022-06-14 14:00:01,15.73188404,0.0003273,53.2143,210.084,12.7966,76.7448,-0.00021938,-0.00031291,0.0,0 STARLINK-3805,1 52377U 22045AY  22165.58334491 -.00031291  00000-0 -21938-3 0  9994,2 52377  53.2143 210.0840 0003273  12.7966  76.7448 15.73188404  1306,6727.928000000001,91.534,351.995,347.591,0.0
52377.0,STARLINK-3805,PAYLOAD,2022-06-14 22:00:00,15.73099817,0.0003042,53.2132,208.433,13.7462,164.6775,0.00030605,0.00042371,0.0,0 STARLINK-3805,1 52377U 22045AY  22165.91667824  .00042371  00000-0  30605-3 0  9990,2 52377  53.2132 208.4330 0003042  13.7462 164.6775 15.73099817  9784,6728.181,91.539,352.093,347.999,0.0
52377.0,STARLINK-3805,PAYLOAD,2022-06-15 14:00:01,15.73137974,0.000337,53.2132,205.1363,15.5455,340.5621,0.00060267,0.00084608,0.0,0 STARLINK-3805,1 52377U 22045AY  22166.58334491  .00084608  00000-0  60267-3 0  9991,2 52377  53.2132 205.1363 0003370  15.5455 340.5621 15.73137974  1302,6728.071999999999,91.537,352.204,347.67,0.0
52377.0,STARLINK-3805,PAYLOAD,2022-06-15 22:00:00,15.73182093,0.0003133,53.2135,203.4846,17.3602,67.661,0.00061723,0.00086852,0.0,0 STARLINK-3805,1 52377U 22045AY  22166.91667824  .00086852  00000-0  61723-3 0  9998,2 52377  53.2135 203.4846 0003133  17.3602  67.6610 15.73182093  1300,6727.946,91.534,351.9190000000001,347.70300000000015,0.0
52377.0,STARLINK-3805,PAYLOAD,2022-06-16 02:00:01,15.73212505,0.0003151,53.2135,202.6595,19.4828,289.9989,0.00054419,0.00076506,0.0,0 STARLINK-3805,1 52377U 22045AY  22167.08334491  .00076506  00000-0  54419-3 0  9997,2 52377  53.2135 202.6595 0003151  19.4828 289.9989 15.73212505  1305,6727.86,91.532,351.844,347.605,0.0
